[{"OBJECT_NAME":"ONEWEB-0262","OBJECT_ID":"2021-060P","EPOCH":"2026-03-09T22:32:44.469312","MEAN_MOTION":13.16593742,"ECCENTRICITY":0.00019142,"INCLINATION":87.9003,"RA_OF_ASC_NODE":248.5097,"ARG_OF_PERICENTER":94.8576,"MEAN_ANOMALY":265.2774,"EPHEMERIS_TYPE":0,"CLASSIFICATION_TYPE":"U","NORAD_CAT_ID":48980,"ELEMENT_SET_NO":999,"REV_AT_EPOCH":22656,"BSTAR":0.00018040943,"MEAN_MOTION_DOT":8.2e-7,"MEAN_MOTION_DDOT":0},{"OBJECT_NAME":"SS 3","OBJECT_ID":"1977-112F","EPOCH":"2026-03-09T11:00:16.769952","MEAN_MOTION":14.02902253,"ECCENTRICITY":0.04940828,"INCLINATION":63.3287,"RA_OF_ASC_NODE":97.995,"ARG_OF_PERICENTER":162.0806,"MEAN_ANOMALY":199.8388,"EPHEMERIS_TYPE":0,"CLASSIFICATION_TYPE":"U","NORAD_CAT_ID":10594,"ELEMENT_SET_NO":999,"REV_AT_EPOCH":35330,"BSTAR":0.00018531048,"MEAN_MOTION_DOT":7.13e-6,"MEAN_MOTION_DDOT":0}]
